[{"OBJECT_NAME":"HULIANWANG DIGUI-01","OBJECT_ID":"2024-240A","EPOCH":"2026-03-04T10:33:01.335456","MEAN_MOTION":13.24420487,"ECCENTRICITY":0.0001941,"INCLINATION":86.5029,"RA_OF_ASC_NODE":18.5513,"ARG_OF_PERICENTER":86.1445,"MEAN_ANOMALY":273.991,"EPHEMERIS_TYPE":0,"CLASSIFICATION_TYPE":"U","NORAD_CAT_ID":62323,"ELEMENT_SET_NO":999,"REV_AT_EPOCH":5877,"BSTAR":0.00012783,"MEAN_MOTION_DOT":7.0e-7,"MEAN_MOTION_DDOT":0},{"OBJECT_NAME":"HULIANWANG DIGUI-02","OBJECT_ID":"2024-240B","EPOCH":"2026-03-04T10:43:46.072992","MEAN_MOTION":13.24422123,"ECCENTRICITY":0.0001865,"INCLINATION":86.5058,"RA_OF_ASC_NODE":18.6785,"ARG_OF_PERICENTER":89.7486,"MEAN_ANOMALY":270.3861,"EPHEMERIS_TYPE":0,"CLASSIFICATION_TYPE":"U","NORAD_CAT_ID":62324,"ELEMENT_SET_NO":999,"REV_AT_EPOCH":5878,"BSTAR":0.00012166,"MEAN_MOTION_DOT":6.7e-7,"MEAN_MOTION_DDOT":0},{"OBJECT_NAME":"HULIANWANG DIGUI-03","OBJECT_ID":"2024-240C","EPOCH":"2026-03-04T12:10:45.922944","MEAN_MOTION":13.24422024,"ECCENTRICITY":0.0002018,"INCLINATION":86.5011,"RA_OF_ASC_NODE":18.4481,"ARG_OF_PERICENTER":85.0809,"MEAN_ANOMALY":275.0556,"EPHEMERIS_TYPE":0,"CLASSIFICATION_TYPE":"U","NORAD_CAT_ID":62325,"ELEMENT_SET_NO":999,"REV_AT_EPOCH":5878,"BSTAR":0.00010976,"MEAN_MOTION_DOT":6.2e-7,"MEAN_MOTION_DDOT":0},{"OBJECT_NAME":"HULIANWANG DIGUI-04","OBJECT_ID":"2024-240D","EPOCH":"2026-03-04T11:59:56.039424","MEAN_MOTION":13.24421678,"ECCENTRICITY":0.0002053,"INCLINATION":86.502,"RA_OF_ASC_NODE":18.4823,"ARG_OF_PERICENTER":85.5443,"MEAN_ANOMALY":274.5926,"EPHEMERIS_TYPE":0,"CLASSIFICATION_TYPE":"U","NORAD_CAT_ID":62326,"ELEMENT_SET_NO":999,"REV_AT_EPOCH":5878,"BSTAR":8.3557e-5,"MEAN_MOTION_DOT":5.1e-7,"MEAN_MOTION_DDOT":0},{"OBJECT_NAME":"HULIANWANG DIGUI-05","OBJECT_ID":"2024-240E","EPOCH":"2026-03-04T11:49:07.437216","MEAN_MOTION":13.24420949,"ECCENTRICITY":0.000208,"INCLINATION":86.5072,"RA_OF_ASC_NODE":18.7039,"ARG_OF_PERICENTER":84.6951,"MEAN_ANOMALY":275.442,"EPHEMERIS_TYPE":0,"CLASSIFICATION_TYPE":"U","NORAD_CAT_ID":62327,"ELEMENT_SET_NO":999,"REV_AT_EPOCH":5878,"BSTAR":7.5078e-5,"MEAN_MOTION_DOT":4.7e-7,"MEAN_MOTION_DDOT":0},{"OBJECT_NAME":"HULIANWANG DIGUI-06","OBJECT_ID":"2024-240F","EPOCH":"2026-03-04T11:27:13.423680","MEAN_MOTION":13.24422882,"ECCENTRICITY":0.0002028,"INCLINATION":86.501,"RA_OF_ASC_NODE":18.4283,"ARG_OF_PERICENTER":89.1021,"MEAN_ANOMALY":271.0345,"EPHEMERIS_TYPE":0,"CLASSIFICATION_TYPE":"U","NORAD_CAT_ID":62328,"ELEMENT_SET_NO":999,"REV_AT_EPOCH":5878,"BSTAR":3.961e-5,"MEAN_MOTION_DOT":3.2e-7,"MEAN_MOTION_DDOT":0},{"OBJECT_NAME":"HULIANWANG DIGUI-07","OBJECT_ID":"2024-240G","EPOCH":"2026-03-04T11:16:28.964352","MEAN_MOTION":13.24421037,"ECCENTRICITY":0.0002008,"INCLINATION":86.4981,"RA_OF_ASC_NODE":18.2992,"ARG_OF_PERICENTER":87.3588,"MEAN_ANOMALY":272.7776,"EPHEMERIS_TYPE":0,"CLASSIFICATION_TYPE":"U","NORAD_CAT_ID":62329,"ELEMENT_SET_NO":999,"REV_AT_EPOCH":5878,"BSTAR":4.8102e-5,"MEAN_MOTION_DOT":3.5e-7,"MEAN_MOTION_DDOT":0},{"OBJECT_NAME":"HULIANWANG DIGUI-08","OBJECT_ID":"2024-240H","EPOCH":"2026-03-04T11:38:16.140192","MEAN_MOTION":13.24420862,"ECCENTRICITY":0.0002124,"INCLINATION":86.5063,"RA_OF_ASC_NODE":18.6639,"ARG_OF_PERICENTER":86.0349,"MEAN_ANOMALY":274.1027,"EPHEMERIS_TYPE":0,"CLASSIFICATION_TYPE":"U","NORAD_CAT_ID":62330,"ELEMENT_SET_NO":999,"REV_AT_EPOCH":5878,"BSTAR":4.6396e-5,"MEAN_MOTION_DOT":3.5e-7,"MEAN_MOTION_DDOT":0},{"OBJECT_NAME":"HULIANWANG DIGUI-09","OBJECT_ID":"2024-240J","EPOCH":"2026-03-04T11:05:30.110784","MEAN_MOTION":13.24422286,"ECCENTRICITY":0.0001956,"INCLINATION":86.503,"RA_OF_ASC_NODE":18.567,"ARG_OF_PERICENTER":89.3543,"MEAN_ANOMALY":270.7815,"EPHEMERIS_TYPE":0,"CLASSIFICATION_TYPE":"U","NORAD_CAT_ID":62331,"ELEMENT_SET_NO":999,"REV_AT_EPOCH":5877,"BSTAR":5.9747e-5,"MEAN_MOTION_DOT":4.0e-7,"MEAN_MOTION_DDOT":0},{"OBJECT_NAME":"HULIANWANG DIGUI-10","OBJECT_ID":"2024-240K","EPOCH":"2026-03-04T10:54:40.848480","MEAN_MOTION":13.24421647,"ECCENTRICITY":0.0001958,"INCLINATION":86.506,"RA_OF_ASC_NODE":18.6918,"ARG_OF_PERICENTER":91.3508,"MEAN_ANOMALY":268.785,"EPHEMERIS_TYPE":0,"CLASSIFICATION_TYPE":"U","NORAD_CAT_ID":62332,"ELEMENT_SET_NO":999,"REV_AT_EPOCH":5877,"BSTAR":6.8774e-5,"MEAN_MOTION_DOT":4.4e-7,"MEAN_MOTION_DDOT":0},{"OBJECT_NAME":"HULIANWANG DIGUI-11","OBJECT_ID":"2025-030A","EPOCH":"2026-03-04T12:14:53.962656","MEAN_MOTION":13.29337709,"ECCENTRICITY":7.48e-5,"INCLINATION":49.9993,"RA_OF_ASC_NODE":251.2751,"ARG_OF_PERICENTER":165.352,"MEAN_ANOMALY":194.7373,"EPHEMERIS_TYPE":0,"CLASSIFICATION_TYPE":"U","NORAD_CAT_ID":62971,"ELEMENT_SET_NO":999,"REV_AT_EPOCH":5193,"BSTAR":8.1035e-5,"MEAN_MOTION_DOT":-8.6e-7,"MEAN_MOTION_DDOT":0},{"OBJECT_NAME":"HULIANWANG DIGUI-12","OBJECT_ID":"2025-030B","EPOCH":"2026-03-04T12:26:46.062816","MEAN_MOTION":13.29339873,"ECCENTRICITY":8.76e-5,"INCLINATION":50.0008,"RA_OF_ASC_NODE":251.3644,"ARG_OF_PERICENTER":159.7088,"MEAN_ANOMALY":200.3819,"EPHEMERIS_TYPE":0,"CLASSIFICATION_TYPE":"U","NORAD_CAT_ID":62972,"ELEMENT_SET_NO":999,"REV_AT_EPOCH":5193,"BSTAR":6.9283e-5,"MEAN_MOTION_DOT":-9.2e-7,"MEAN_MOTION_DDOT":0},{"OBJECT_NAME":"HULIANWANG DIGUI-13","OBJECT_ID":"2025-030C","EPOCH":"2026-03-04T12:02:49.470144","MEAN_MOTION":13.29337804,"ECCENTRICITY":6.99e-5,"INCLINATION":50.0011,"RA_OF_ASC_NODE":251.2897,"ARG_OF_PERICENTER":150.6648,"MEAN_ANOMALY":209.4263,"EPHEMERIS_TYPE":0,"CLASSIFICATION_TYPE":"U","NORAD_CAT_ID":62973,"ELEMENT_SET_NO":999,"REV_AT_EPOCH":5193,"BSTAR":7.3572e-5,"MEAN_MOTION_DOT":-9.0e-7,"MEAN_MOTION_DDOT":0},{"OBJECT_NAME":"HULIANWANG DIGUI-14","OBJECT_ID":"2025-030D","EPOCH":"2026-03-04T11:26:49.375968","MEAN_MOTION":13.29337608,"ECCENTRICITY":7.92e-5,"INCLINATION":50.0017,"RA_OF_ASC_NODE":251.1775,"ARG_OF_PERICENTER":151.0052,"MEAN_ANOMALY":209.0864,"EPHEMERIS_TYPE":0,"CLASSIFICATION_TYPE":"U","NORAD_CAT_ID":62974,"ELEMENT_SET_NO":999,"REV_AT_EPOCH":5193,"BSTAR":6.2283e-5,"MEAN_MOTION_DOT":-9.5e-7,"MEAN_MOTION_DDOT":0},{"OBJECT_NAME":"HULIANWANG DIGUI-15","OBJECT_ID":"2025-030E","EPOCH":"2026-03-04T11:50:50.794080","MEAN_MOTION":13.2933779,"ECCENTRICITY":6.71e-5,"INCLINATION":50.0012,"RA_OF_ASC_NODE":251.249,"ARG_OF_PERICENTER":157.4949,"MEAN_ANOMALY":202.5953,"EPHEMERIS_TYPE":0,"CLASSIFICATION_TYPE":"U","NORAD_CAT_ID":62975,"ELEMENT_SET_NO":999,"REV_AT_EPOCH":5193,"BSTAR":8.5072e-5,"MEAN_MOTION_DOT":-8.5e-7,"MEAN_MOTION_DDOT":0},{"OBJECT_NAME":"HULIANWANG DIGUI-16","OBJECT_ID":"2025-030F","EPOCH":"2026-03-04T11:14:43.331712","MEAN_MOTION":13.29338347,"ECCENTRICITY":7.88e-5,"INCLINATION":50.0034,"RA_OF_ASC_NODE":251.1866,"ARG_OF_PERICENTER":147.7865,"MEAN_ANOMALY":212.3055,"EPHEMERIS_TYPE":0,"CLASSIFICATION_TYPE":"U","NORAD_CAT_ID":62976,"ELEMENT_SET_NO":999,"REV_AT_EPOCH":5193,"BSTAR":6.5693e-5,"MEAN_MOTION_DOT":-9.4e-7,"MEAN_MOTION_DDOT":0}]
