HULIANWANG DIGUI-01     
1 62323U 24240A   26063.43959879  .00000070  00000+0  12783-3 0  9999
2 62323  86.5029  18.5513 0001941  86.1445 273.9910 13.24420487 58777
HULIANWANG DIGUI-02     
1 62324U 24240B   26063.44706103  .00000067  00000+0  12166-3 0  9992
2 62324  86.5058  18.6785 0001865  89.7486 270.3861 13.24422123 58787
HULIANWANG DIGUI-03     
1 62325U 24240C   26063.50747596  .00000062  00000+0  10976-3 0  9993
2 62325  86.5011  18.4481 0002018  85.0809 275.0556 13.24422024 58780
HULIANWANG DIGUI-04     
1 62326U 24240D   26063.49995416  .00000051  00000+0  83557-4 0  9992
2 62326  86.5020  18.4823 0002053  85.5443 274.5926 13.24421678 58788
HULIANWANG DIGUI-05     
1 62327U 24240E   26063.49244719  .00000047  00000+0  75078-4 0  9990
2 62327  86.5072  18.7039 0002080  84.6951 275.4420 13.24420949 58781
HULIANWANG DIGUI-06     
1 62328U 24240F   26063.47723870  .00000032  00000+0  39610-4 0  9995
2 62328  86.5010  18.4283 0002028  89.1021 271.0345 13.24422882 58788
HULIANWANG DIGUI-07     
1 62329U 24240G   26063.46977968  .00000035  00000+0  48102-4 0  9993
2 62329  86.4981  18.2992 0002008  87.3588 272.7776 13.24421037 58783
HULIANWANG DIGUI-08     
1 62330U 24240H   26063.48490903  .00000035  00000+0  46396-4 0  9999
2 62330  86.5063  18.6639 0002124  86.0349 274.1027 13.24420862 58789
HULIANWANG DIGUI-09     
1 62331U 24240J   26063.46215406  .00000040  00000+0  59747-4 0  9991
2 62331  86.5030  18.5670 0001956  89.3543 270.7815 13.24422286 58770
HULIANWANG DIGUI-10     
1 62332U 24240K   26063.45463945  .00000044  00000+0  68774-4 0  9998
2 62332  86.5060  18.6918 0001958  91.3508 268.7850 13.24421647 58772
HULIANWANG DIGUI-11     
1 62971U 25030A   26063.51034679 -.00000086  00000+0  81035-4 0  9992
2 62971  49.9993 251.2751 0000748 165.3520 194.7373 13.29337709 51930
HULIANWANG DIGUI-12     
1 62972U 25030B   26063.51858869 -.00000092  00000+0  69283-4 0  9996
2 62972  50.0008 251.3644 0000876 159.7088 200.3819 13.29339873 51934
HULIANWANG DIGUI-13     
1 62973U 25030C   26063.50196146 -.00000090  00000+0  73572-4 0  9993
2 62973  50.0011 251.2897 0000699 150.6648 209.4263 13.29337804 51938
HULIANWANG DIGUI-14     
1 62974U 25030D   26063.47696037 -.00000095  00000+0  62283-4 0  9996
2 62974  50.0017 251.1775 0000792 151.0052 209.0864 13.29337608 51932
HULIANWANG DIGUI-15     
1 62975U 25030E   26063.49364345 -.00000085  00000+0  85072-4 0  9993
2 62975  50.0012 251.2490 0000671 157.4949 202.5953 13.29337790 51933
HULIANWANG DIGUI-16     
1 62976U 25030F   26063.46855708 -.00000094  00000+0  65693-4 0  9996
2 62976  50.0034 251.1866 0000788 147.7865 212.3055 13.29338347 51933
